PHISAT 2                
1 60470U 24149C   26068.78834181  .00008925  00000+0  31421-3 0  9996
2 60470  97.3806 148.6498 0001175 168.6230 191.5037 15.29548631 86792
STARLINK-34573          
1 64676U 25139N   26068.40111997  .00016139  00000+0  55580-3 0  9998
2 64676  53.1576 128.1133 0001130 100.9056 259.2072 15.30201397 40241
